{"type":"Topology","objects":{"venue_hexbins":{"type":"GeometryCollection","geometries":[{"type":"Polygon","arcs":[[0,1,2,3]],"properties":{"count":52}},{"type":"Polygon","arcs":[[4,5,6,7]],"properties":{"count":96}},{"type":"Polygon","arcs":[[8,9,10,11,12,13]],"properties":{"count":1180}},{"type":"Polygon","arcs":[[14,15,16,17,18,-11]],"properties":{"count":3786}},{"type":"Polygon","arcs":[[19,20,21,-1,22,23]],"properties":{"count":4}},{"type":"Polygon","arcs":[[24,-8,25,26,27]],"properties":{"count":34}},{"type":"Polygon","arcs":[[28,29,30,31,32,33]],"properties":{"count":72}},{"type":"Polygon","arcs":[[-12,-19,34,35,36,37]],"properties":{"count":1084}},{"type":"Polygon","arcs":[[38,39,40,41,-30,42]],"properties":{"count":292}},{"type":"Polygon","arcs":[[43,44,45,46,47,48]],"properties":{"count":105}},{"type":"Polygon","arcs":[[-3,49]],"properties":{"count":7}},{"type":"Polygon","arcs":[[-36,50,51,52,53,54]],"properties":{"count":344}},{"type":"Polygon","arcs":[[55,56,57,58,59,60]],"properties":{"count":8}},{"type":"Polygon","arcs":[[61,-48,62,63,64,-52]],"properties":{"count":201}},{"type":"Polygon","arcs":[[65,66]],"properties":{"count":34}},{"type":"Polygon","arcs":[[67,68,69,-15,-10,70]],"properties":{"count":3089}},{"type":"Polygon","arcs":[[71,72,73,74,75]],"properties":{"count":65}},{"type":"Polygon","arcs":[[76,77,-34,78,-73,79]],"properties":{"count":71}},{"type":"Polygon","arcs":[[80,81,82,83,84]],"properties":{"count":50}},{"type":"Polygon","arcs":[[85,86,-6,87]],"properties":{"count":39}},{"type":"Polygon","arcs":[[-18,88,-49,-62,-51,-35]],"properties":{"count":711}},{"type":"Polygon","arcs":[[89,90]],"properties":{"count":10}},{"type":"Polygon","arcs":[[91,92,93,-77,94,95]],"properties":{"count":206}},{"type":"Polygon","arcs":[[96,-95,-80,-72,97]],"properties":{"count":16}},{"type":"Polygon","arcs":[[98,-37,-55,99,100,-41]],"properties":{"count":328}},{"type":"Polygon","arcs":[[101,-43,-29,-78,-94]],"properties":{"count":212}},{"type":"Polygon","arcs":[[102,103,104,105,-16,-70]],"properties":{"count":689}},{"type":"Polygon","arcs":[[-53,-65,106,107,108,109]],"properties":{"count":60}},{"type":"Polygon","arcs":[[110,111,-92,112,113]],"properties":{"count":94}},{"type":"Polygon","arcs":[[-106,114,115,-44,-89,-17]],"properties":{"count":366}},{"type":"Polygon","arcs":[[116,117,118,119]],"properties":{"count":33}},{"type":"Polygon","arcs":[[120,121,122,123,124,125]],"properties":{"count":90}},{"type":"Polygon","arcs":[[126,127,128,129,130]],"properties":{"count":83}},{"type":"Polygon","arcs":[[131,132,133,134,135,136]],"properties":{"count":36}},{"type":"Polygon","arcs":[[137,138,139,140,141]],"properties":{"count":3}},{"type":"Polygon","arcs":[[142,143,144,145,146,147]],"properties":{"count":36}},{"type":"Polygon","arcs":[[148,149,150,151,-45,-116]],"properties":{"count":9}},{"type":"Polygon","arcs":[[152,153,154]],"properties":{"count":6}},{"type":"Polygon","arcs":[[155,156,157,158,159,160]],"properties":{"count":29}},{"type":"Polygon","arcs":[[161,162,163,164,165,166]],"properties":{"count":26}},{"type":"Polygon","arcs":[[-42,-101,167,168,169,-31]],"properties":{"count":85}},{"type":"Polygon","arcs":[[-100,-54,-110,170,171,-168]],"properties":{"count":222}},{"type":"Polygon","arcs":[[172,173,-126,174,175,176]],"properties":{"count":528}},{"type":"Polygon","arcs":[[177,178,179,180,181]],"properties":{"count":127}},{"type":"Polygon","arcs":[[182,183,184,185,186]],"properties":{"count":49}},{"type":"Polygon","arcs":[[187,188]],"properties":{"count":4}},{"type":"Polygon","arcs":[[189,190,191,192,193,194]],"properties":{"count":22}},{"type":"Polygon","arcs":[[195,196,-182,197,198]],"properties":{"count":62}},{"type":"Polygon","arcs":[[-75,199,200,201,202]],"properties":{"count":49}},{"type":"Polygon","arcs":[[-171,-109,203,204,205,206]],"properties":{"count":31}},{"type":"Polygon","arcs":[[207,208,209,210,211,212]],"properties":{"count":118}},{"type":"Polygon","arcs":[[-13,-38,-99,-40,213]],"properties":{"count":297}},{"type":"Polygon","arcs":[[-141,214]],"properties":{"count":36}},{"type":"Polygon","arcs":[[-83,215,-213,216,217,218]],"properties":{"count":103}},{"type":"Polygon","arcs":[[219,220]],"properties":{"count":24}},{"type":"Polygon","arcs":[[221,222,223]],"properties":{"count":23}},{"type":"Polygon","arcs":[[224,225,226,227,228]],"properties":{"count":74}},{"type":"Polygon","arcs":[[-64,229,230,-220,231,-107]],"properties":{"count":35}},{"type":"Polygon","arcs":[[232,233,234,235]],"properties":{"count":48}},{"type":"Polygon","arcs":[[236,237,238,239,240,241]],"properties":{"count":27}},{"type":"Polygon","arcs":[[242,243,244,245,246,247]],"properties":{"count":270}},{"type":"Polygon","arcs":[[248,249,250,251,252,253]],"properties":{"count":362}},{"type":"Polygon","arcs":[[-175,-125,254,-127,255,256]],"properties":{"count":121}},{"type":"Polygon","arcs":[[257,258,259,260,261,262]],"properties":{"count":13}},{"type":"Polygon","arcs":[[-217,-212,263,-103,-69,264]],"properties":{"count":277}},{"type":"Polygon","arcs":[[265,266,267,268,269,270]],"properties":{"count":50}},{"type":"Polygon","arcs":[[271,272,273,274,-209,275]],"properties":{"count":86}},{"type":"Polygon","arcs":[[276,277,-178,-197,278]],"properties":{"count":36}},{"type":"Polygon","arcs":[[279,280,281,282,283,-274]],"properties":{"count":58}},{"type":"Polygon","arcs":[[-27,284]],"properties":{"count":4}},{"type":"Polygon","arcs":[[-152,285,286,287,-46]],"properties":{"count":43}},{"type":"Polygon","arcs":[[288,289,-71,-9,290]],"properties":{"count":165}},{"type":"Polygon","arcs":[[291,292,293,294]],"properties":{"count":124}},{"type":"Polygon","arcs":[[295,296,297,298,299,300]],"properties":{"count":170}},{"type":"Polygon","arcs":[[301,302,303,304,305,306]],"properties":{"count":14}},{"type":"Polygon","arcs":[[307,308,309,310,311,312]],"properties":{"count":43}},{"type":"Polygon","arcs":[[313,-306,314,315,316,317]],"properties":{"count":22}},{"type":"Polygon","arcs":[[318,319,320,-149,-115,-105]],"properties":{"count":59}},{"type":"Polygon","arcs":[[-211,321,322,-319,-104,-264]],"properties":{"count":74}},{"type":"Polygon","arcs":[[323,324,-157,325]],"properties":{"count":178}},{"type":"Polygon","arcs":[[326,327]],"properties":{"count":14}},{"type":"Polygon","arcs":[[328,329,330,-238,331]],"properties":{"count":74}},{"type":"Polygon","arcs":[[332,-256,-131,333,334]],"properties":{"count":107}},{"type":"Polygon","arcs":[[-169,-172,-207,335,336,337]],"properties":{"count":20}},{"type":"Polygon","arcs":[[338,339,340,341,342]],"properties":{"count":26}},{"type":"Polygon","arcs":[[343,-253,344,345,346,347]],"properties":{"count":17}},{"type":"Polygon","arcs":[[348,349]],"properties":{"count":76}},{"type":"Polygon","arcs":[[350,351]],"properties":{"count":28}},{"type":"Polygon","arcs":[[-242,352]],"properties":{"count":8}},{"type":"Polygon","arcs":[[353,354,355,-20,356,357]],"properties":{"count":34}},{"type":"Polygon","arcs":[[358,359,360,361,362,363]],"properties":{"count":17}},{"type":"Polygon","arcs":[[364,365,366,367,368,369]],"properties":{"count":13}},{"type":"Polygon","arcs":[[370,371,372,373,374,375]],"properties":{"count":66}},{"type":"Polygon","arcs":[[376,377,-190,378]],"properties":{"count":68}},{"type":"Polygon","arcs":[[379]],"properties":{"count":18}},{"type":"Polygon","arcs":[[380]],"properties":{"count":13}},{"type":"Polygon","arcs":[[381]],"properties":{"count":4}},{"type":"Polygon","arcs":[[382,383,384,-289,385]],"properties":{"count":159}},{"type":"Polygon","arcs":[[-334,-130,386,387,-111,388]],"properties":{"count":81}},{"type":"Polygon","arcs":[[389,390,391,392]],"properties":{"count":6}},{"type":"Polygon","arcs":[[393,394,395,-267,396]],"properties":{"count":7}},{"type":"Polygon","arcs":[[397,-176,-257,-333,398,399]],"properties":{"count":124}},{"type":"Polygon","arcs":[[-205,400,401,-309,402]],"properties":{"count":21}},{"type":"Polygon","arcs":[[403,404,405,406]],"properties":{"count":65}},{"type":"Polygon","arcs":[[407,408,409,410,411]],"properties":{"count":30}},{"type":"Polygon","arcs":[[412,413,414,415,416]],"properties":{"count":66}},{"type":"Polygon","arcs":[[417,418,419,420,421,422]],"properties":{"count":34}},{"type":"Polygon","arcs":[[423]],"properties":{"count":69}},{"type":"Polygon","arcs":[[424,425]],"properties":{"count":3}},{"type":"Polygon","arcs":[[426,427,428,429,430]],"properties":{"count":45}},{"type":"Polygon","arcs":[[431,432,433,434,435]],"properties":{"count":14}},{"type":"Polygon","arcs":[[436,437,-376,438,439,440]],"properties":{"count":10}},{"type":"Polygon","arcs":[[441,-218,-265,-68,-290,-385]],"properties":{"count":164}},{"type":"Polygon","arcs":[[442]],"properties":{"count":8}},{"type":"Polygon","arcs":[[-79,-33,443,444,-200,-74]],"properties":{"count":38}},{"type":"Polygon","arcs":[[445,446,447]],"properties":{"count":30}},{"type":"Polygon","arcs":[[448,449]],"properties":{"count":15}},{"type":"Polygon","arcs":[[450,451,-249,452,453]],"properties":{"count":10}},{"type":"Polygon","arcs":[[454,455]],"properties":{"count":12}},{"type":"Polygon","arcs":[[456,457,458,-280,-273,459]],"properties":{"count":43}},{"type":"Polygon","arcs":[[460,461,462]],"properties":{"count":44}},{"type":"Polygon","arcs":[[463]],"properties":{"count":6}},{"type":"Polygon","arcs":[[464]],"properties":{"count":10}},{"type":"Polygon","arcs":[[465,466,467,468]],"properties":{"count":8}},{"type":"Polygon","arcs":[[469,-317,470,471,472,-420]],"properties":{"count":29}},{"type":"Polygon","arcs":[[473,474,475,476,-250,-452]],"properties":{"count":13}},{"type":"Polygon","arcs":[[477,478,479,480,481,482]],"properties":{"count":8}},{"type":"Polygon","arcs":[[483,484,485]],"properties":{"count":12}},{"type":"Polygon","arcs":[[486,487,488,489,490,491]],"properties":{"count":8}},{"type":"Polygon","arcs":[[-490,492,493,494,495,496]],"properties":{"count":21}},{"type":"Polygon","arcs":[[497,498,499,500,501,502]],"properties":{"count":14}},{"type":"Polygon","arcs":[[503]],"properties":{"count":16}},{"type":"Polygon","arcs":[[504,505]],"properties":{"count":7}},{"type":"Polygon","arcs":[[506,507,508,509,510]],"properties":{"count":20}},{"type":"Polygon","arcs":[[511,512,513,514,515]],"properties":{"count":16}},{"type":"Polygon","arcs":[[516,517,518,519,520,521]],"properties":{"count":31}},{"type":"Polygon","arcs":[[522,523,-137,524,-188]],"properties":{"count":35}},{"type":"Polygon","arcs":[[525,-510,526,-292,527]],"properties":{"count":10}},{"type":"Polygon","arcs":[[528]],"properties":{"count":19}},{"type":"Polygon","arcs":[[529,530]],"properties":{"count":12}},{"type":"Polygon","arcs":[[531]],"properties":{"count":3}},{"type":"Polygon","arcs":[[532,533,534,535,536,-361]],"properties":{"count":9}},{"type":"Polygon","arcs":[[537,-496,538,-298]],"properties":{"count":8}},{"type":"Polygon","arcs":[[539,540,541,542,543,544]],"properties":{"count":78}},{"type":"Polygon","arcs":[[545,546,547]],"properties":{"count":3}},{"type":"Polygon","arcs":[[548,549,550,551,552,-476]],"properties":{"count":10}},{"type":"Polygon","arcs":[[553,554,555,-244,556]],"properties":{"count":5}},{"type":"Polygon","arcs":[[-339,557,558]],"properties":{"count":8}},{"type":"Polygon","arcs":[[559,560,-557,-243,561,562]],"properties":{"count":18}},{"type":"Polygon","arcs":[[563]],"properties":{"count":58}},{"type":"Polygon","arcs":[[564,565,-545,566,-433,567]],"properties":{"count":4}},{"type":"Polygon","arcs":[[-119,568]],"properties":{"count":13}},{"type":"Polygon","arcs":[[569]],"properties":{"count":7}},{"type":"Polygon","arcs":[[570,571]],"properties":{"count":7}},{"type":"Polygon","arcs":[[572,573,-407,574]],"properties":{"count":6}},{"type":"Polygon","arcs":[[575,576,577,578,579,-373]],"properties":{"count":23}},{"type":"Polygon","arcs":[[580,-270,581,582,583,-304]],"properties":{"count":4}},{"type":"Polygon","arcs":[[584,585,586]],"properties":{"count":17}},{"type":"Polygon","arcs":[[587,588,-565,589]],"properties":{"count":4}},{"type":"Polygon","arcs":[[-505,590]],"properties":{"count":4}},{"type":"Polygon","arcs":[[-283,591,-370,592,593,594]],"properties":{"count":30}},{"type":"Polygon","arcs":[[595,596]],"properties":{"count":12}},{"type":"Polygon","arcs":[[597,598,599,600,601,602]],"properties":{"count":39}},{"type":"Polygon","arcs":[[-521,603]],"properties":{"count":8}},{"type":"Polygon","arcs":[[604,605,-279,-196,606,-260]],"properties":{"count":9}},{"type":"Polygon","arcs":[[607]],"properties":{"count":4}},{"type":"Polygon","arcs":[[608,609,-139]],"properties":{"count":4}},{"type":"Polygon","arcs":[[610,611]],"properties":{"count":6}},{"type":"Polygon","arcs":[[612,613,-533,-360,614]],"properties":{"count":79}},{"type":"Polygon","arcs":[[615,616,-454,617,618]],"properties":{"count":7}},{"type":"Polygon","arcs":[[619]],"properties":{"count":19}},{"type":"Polygon","arcs":[[620]],"properties":{"count":16}},{"type":"Polygon","arcs":[[621,-482,622,-121,-174,623]],"properties":{"count":32}},{"type":"Polygon","arcs":[[624]],"properties":{"count":5}},{"type":"Polygon","arcs":[[-368,625,626,627,628,629]],"properties":{"count":4}},{"type":"Polygon","arcs":[[-586,630,631,-162,632,633]],"properties":{"count":33}},{"type":"Polygon","arcs":[[634,635]],"properties":{"count":4}},{"type":"Polygon","arcs":[[-135,636,-400,637]],"properties":{"count":21}},{"type":"Polygon","arcs":[[638,639,640,641]],"properties":{"count":27}},{"type":"Polygon","arcs":[[-583,642,-301,643,644,645]],"properties":{"count":42}},{"type":"Polygon","arcs":[[646,647,648,-512,649,-391]],"properties":{"count":54}},{"type":"Polygon","arcs":[[650,651,652]],"properties":{"count":8}},{"type":"Polygon","arcs":[[653,654,655,656]],"properties":{"count":62}},{"type":"Polygon","arcs":[[657,658,659,660,661]],"properties":{"count":14}},{"type":"Polygon","arcs":[[-326,-156,662]],"properties":{"count":4}},{"type":"Polygon","arcs":[[663,664]],"properties":{"count":5}},{"type":"Polygon","arcs":[[665]],"properties":{"count":13}},{"type":"Polygon","arcs":[[666,-363,667,668,669,670]],"properties":{"count":4}},{"type":"Polygon","arcs":[[671,672,673,674]],"properties":{"count":13}},{"type":"Polygon","arcs":[[675,676,677,678,679,680]],"properties":{"count":16}},{"type":"Polygon","arcs":[[681,682,-588,683,684]],"properties":{"count":3}},{"type":"Polygon","arcs":[[685,686,687,-302,688,689]],"properties":{"count":6}},{"type":"Polygon","arcs":[[690,691,692,693]],"properties":{"count":10}},{"type":"Polygon","arcs":[[-227,694,-652,695]],"properties":{"count":4}},{"type":"Polygon","arcs":[[696,697]],"properties":{"count":8}},{"type":"Polygon","arcs":[[698,699,700,-449]],"properties":{"count":6}},{"type":"Polygon","arcs":[[701,-502,702,-654,703,704]],"properties":{"count":10}},{"type":"Polygon","arcs":[[705,706]],"properties":{"count":6}},{"type":"Polygon","arcs":[[707,708,709,-498,710,-180]],"properties":{"count":3}},{"type":"Polygon","arcs":[[711,712]],"properties":{"count":4}},{"type":"Polygon","arcs":[[-329,713]],"properties":{"count":7}},{"type":"Polygon","arcs":[[-425,714,715,716]],"properties":{"count":12}},{"type":"Polygon","arcs":[[717,-117]],"properties":{"count":6}},{"type":"Polygon","arcs":[[-402,718,719,720,721,-310]],"properties":{"count":13}},{"type":"Polygon","arcs":[[722]],"properties":{"count":3}},{"type":"Polygon","arcs":[[723,-440,724,725,726,727]],"properties":{"count":191}},{"type":"Polygon","arcs":[[728,729,730,-576,-372,731]],"properties":{"count":19}},{"type":"Polygon","arcs":[[732,-558,-343,733,-494]],"properties":{"count":5}},{"type":"Polygon","arcs":[[734,735,736,737]],"properties":{"count":6}},{"type":"Polygon","arcs":[[-445,738,739,740,741,-201]],"properties":{"count":20}},{"type":"Polygon","arcs":[[742,-549,-475,743]],"properties":{"count":6}},{"type":"Polygon","arcs":[[744,745,746,747]],"properties":{"count":6}},{"type":"Polygon","arcs":[[748,749,750,751,752,753]],"properties":{"count":15}},{"type":"Polygon","arcs":[[-160,754]],"properties":{"count":4}},{"type":"Polygon","arcs":[[-635,755]],"properties":{"count":3}},{"type":"Polygon","arcs":[[-706,756,757,758]],"properties":{"count":4}},{"type":"Polygon","arcs":[[-758,759]],"properties":{"count":3}},{"type":"Polygon","arcs":[[-240,760,761,-446,762]],"properties":{"count":34}},{"type":"Polygon","arcs":[[763,764,-86,765,766]],"properties":{"count":87}},{"type":"Polygon","arcs":[[767,768]],"properties":{"count":4}},{"type":"Polygon","arcs":[[769]],"properties":{"count":3}},{"type":"Polygon","arcs":[[770,-641,771,772,773,774]],"properties":{"count":14}},{"type":"Polygon","arcs":[[775,776,777,778]],"properties":{"count":4}},{"type":"Polygon","arcs":[[-194,779,780,781]],"properties":{"count":4}},{"type":"Polygon","arcs":[[782,783,784,785]],"properties":{"count":6}},{"type":"Polygon","arcs":[[786,787,-177,-398,-637,-134]],"properties":{"count":15}},{"type":"Polygon","arcs":[[788,-727,789,790,791,-751]],"properties":{"count":38}},{"type":"Polygon","arcs":[[-481,792,793,-122,-623]],"properties":{"count":5}},{"type":"Polygon","arcs":[[-311,-722,794,795,796,797]],"properties":{"count":90}},{"type":"Polygon","arcs":[[-700,798]],"properties":{"count":4}},{"type":"Polygon","arcs":[[799]],"properties":{"count":10}},{"type":"Polygon","arcs":[[800,801,802,803,-458,804]],"properties":{"count":61}},{"type":"Polygon","arcs":[[-477,-553,805,806,807,-251]],"properties":{"count":27}},{"type":"Polygon","arcs":[[808,809,810,-408,811]],"properties":{"count":12}},{"type":"Polygon","arcs":[[812,-147,813,814,815,-192]],"properties":{"count":44}},{"type":"Polygon","arcs":[[816,817,-787,-133,818]],"properties":{"count":15}},{"type":"Polygon","arcs":[[819,820,821]],"properties":{"count":6}},{"type":"Polygon","arcs":[[822]],"properties":{"count":10}},{"type":"Polygon","arcs":[[823,824]],"properties":{"count":3}},{"type":"Polygon","arcs":[[825,-600]],"properties":{"count":4}},{"type":"Polygon","arcs":[[-252,-808,826,-749,827,-345]],"properties":{"count":18}},{"type":"Polygon","arcs":[[828]],"properties":{"count":3}},{"type":"Polygon","arcs":[[-410,829,830,831,832,833]],"properties":{"count":15}},{"type":"Polygon","arcs":[[834,835,836,837]],"properties":{"count":9}},{"type":"Polygon","arcs":[[-416,838,-764,839]],"properties":{"count":38}},{"type":"Polygon","arcs":[[840,841,-351,842]],"properties":{"count":5}},{"type":"Polygon","arcs":[[-305,-584,-646,843,-315]],"properties":{"count":16}},{"type":"Polygon","arcs":[[-511,-526,844]],"properties":{"count":63}},{"type":"Polygon","arcs":[[-261,-607,-199,845]],"properties":{"count":6}},{"type":"Polygon","arcs":[[846,847,848,-686,849,850]],"properties":{"count":8}},{"type":"Polygon","arcs":[[-455,851,852,853]],"properties":{"count":5}},{"type":"Polygon","arcs":[[-374,-580,854,855,-802,856]],"properties":{"count":9}},{"type":"Polygon","arcs":[[857,858,859,860,861,862]],"properties":{"count":19}},{"type":"Polygon","arcs":[[-573,863]],"properties":{"count":4}},{"type":"Polygon","arcs":[[-768,864,865,866,867]],"properties":{"count":14}},{"type":"Polygon","arcs":[[-294,868,869,870]],"properties":{"count":3}},{"type":"Polygon","arcs":[[871,-485,872]],"properties":{"count":8}},{"type":"Polygon","arcs":[[873,874,-222,875,876]],"properties":{"count":13}},{"type":"Polygon","arcs":[[877,878,-613,879,-678]],"properties":{"count":4}},{"type":"Polygon","arcs":[[880]],"properties":{"count":14}},{"type":"Polygon","arcs":[[-618,-453,-254,-344,881]],"properties":{"count":7}},{"type":"Polygon","arcs":[[882,-411,-834,883,-550,-743]],"properties":{"count":5}},{"type":"Polygon","arcs":[[884]],"properties":{"count":24}},{"type":"Polygon","arcs":[[-796,885,-277,-606,886]],"properties":{"count":25}},{"type":"Polygon","arcs":[[-832,887,-732,-371,-438,888]],"properties":{"count":12}},{"type":"Polygon","arcs":[[-552,889,-441,-724,890,-806]],"properties":{"count":9}},{"type":"Polygon","arcs":[[891,892,893,-847,894,895]],"properties":{"count":7}},{"type":"Polygon","arcs":[[-536,896,897,-427,898,899]],"properties":{"count":102}},{"type":"Polygon","arcs":[[900,901,-639,902,903]],"properties":{"count":20}},{"type":"Polygon","arcs":[[-90,904,905,906]],"properties":{"count":6}},{"type":"Polygon","arcs":[[907]],"properties":{"count":6}},{"type":"Polygon","arcs":[[908,-517,909,910]],"properties":{"count":10}},{"type":"Polygon","arcs":[[911,912,913,-745,914,915]],"properties":{"count":16}},{"type":"Polygon","arcs":[[916,-247,917,-56,918,-578]],"properties":{"count":20}},{"type":"Polygon","arcs":[[919,-598,920,-500]],"properties":{"count":8}},{"type":"Polygon","arcs":[[921,922]],"properties":{"count":6}},{"type":"Polygon","arcs":[[923,924,925,-735,926,927]],"properties":{"count":15}},{"type":"Polygon","arcs":[[928,-629,929,930,931]],"properties":{"count":3}},{"type":"Polygon","arcs":[[-825,932,-783,933]],"properties":{"count":11}},{"type":"Polygon","arcs":[[-47,-288,934,-230,-63]],"properties":{"count":132}},{"type":"Polygon","arcs":[[935,-66,936,-184,937]],"properties":{"count":19}},{"type":"Polygon","arcs":[[938,939,-624,-173,-788,-818]],"properties":{"count":4}},{"type":"Polygon","arcs":[[-336,-206,-403,-308,940,941]],"properties":{"count":15}},{"type":"Polygon","arcs":[[942]],"properties":{"count":3}},{"type":"Polygon","arcs":[[-362,-537,-900,943,944,-668]],"properties":{"count":11}},{"type":"Polygon","arcs":[[-664,945]],"properties":{"count":6}},{"type":"Polygon","arcs":[[946]],"properties":{"count":8}},{"type":"Polygon","arcs":[[-741,947,948,-143,949,950]],"properties":{"count":16}},{"type":"Polygon","arcs":[[951,952,953]],"properties":{"count":3}},{"type":"Polygon","arcs":[[954,955]],"properties":{"count":4}},{"type":"Polygon","arcs":[[956,-647,-390,957]],"properties":{"count":3}},{"type":"Polygon","arcs":[[-956,958,959,960]],"properties":{"count":14}},{"type":"Polygon","arcs":[[961]],"properties":{"count":5}},{"type":"Polygon","arcs":[[-671,962,963,964]],"properties":{"count":22}},{"type":"Polygon","arcs":[[-325,965,-158]],"properties":{"count":6}},{"type":"Polygon","arcs":[[-922,966]],"properties":{"count":18}},{"type":"Polygon","arcs":[[-794,967,968,-383,969,-123]],"properties":{"count":9}},{"type":"Polygon","arcs":[[-129,970,-387]],"properties":{"count":12}},{"type":"Polygon","arcs":[[-392,-650,-516,971]],"properties":{"count":5}},{"type":"Polygon","arcs":[[972,973]],"properties":{"count":3}},{"type":"Polygon","arcs":[[974,-463,975,-466,976]],"properties":{"count":12}},{"type":"Polygon","arcs":[[-773,977,-225,978,979]],"properties":{"count":16}},{"type":"Polygon","arcs":[[980,-927,-738,981]],"properties":{"count":21}},{"type":"Polygon","arcs":[[-752,-792,982,983,-81,984]],"properties":{"count":4}},{"type":"Polygon","arcs":[[-596,985,-874,986]],"properties":{"count":5}},{"type":"Polygon","arcs":[[987]],"properties":{"count":3}},{"type":"Polygon","arcs":[[-468,988,-609,-138,989]],"properties":{"count":3}},{"type":"Polygon","arcs":[[990,-562,-248,-917,-577,-731]],"properties":{"count":28}},{"type":"Polygon","arcs":[[-853,991]],"properties":{"count":3}},{"type":"Polygon","arcs":[[992]],"properties":{"count":6}},{"type":"Polygon","arcs":[[993,-508]],"properties":{"count":4}},{"type":"Polygon","arcs":[[994,-337,-942,995,-948,-740]],"properties":{"count":11}},{"type":"Polygon","arcs":[[996,997]],"properties":{"count":3}},{"type":"Polygon","arcs":[[-571,998,-878,-677,999]],"properties":{"count":3}},{"type":"Polygon","arcs":[[1000,1001,-681,1002,-697,1003]],"properties":{"count":25}},{"type":"Polygon","arcs":[[1004,-228,-696,-651,1005]],"properties":{"count":5}},{"type":"Polygon","arcs":[[1006]],"properties":{"count":22}},{"type":"Polygon","arcs":[[1007,1008,-271,-581,-303,-688]],"properties":{"count":10}},{"type":"Polygon","arcs":[[1009,1010,-775,1011,-897,-535]],"properties":{"count":10}},{"type":"Polygon","arcs":[[-593,-369,-630,-929,1012,1013]],"properties":{"count":8}},{"type":"Polygon","arcs":[[-275,-284,-595,1014,-322,-210]],"properties":{"count":3}},{"type":"Polygon","arcs":[[-716,1015,-691,1016]],"properties":{"count":12}},{"type":"Polygon","arcs":[[-785,1017]],"properties":{"count":3}},{"type":"Polygon","arcs":[[-660,1018,-554,-561,1019]],"properties":{"count":14}},{"type":"Polygon","arcs":[[-193,-816,1020,-912,1021,-780]],"properties":{"count":10}},{"type":"Polygon","arcs":[[-347,1022,1023,-479,1024]],"properties":{"count":8}},{"type":"Polygon","arcs":[[-661,-1020,-560,1025]],"properties":{"count":4}},{"type":"Polygon","arcs":[[1026,-720]],"properties":{"count":5}},{"type":"Polygon","arcs":[[-488,1027]],"properties":{"count":5}},{"type":"Polygon","arcs":[[-996,-941,-313,1028,-144,-949]],"properties":{"count":5}},{"type":"Polygon","arcs":[[1029,-235,1030,1031]],"properties":{"count":10}},{"type":"Polygon","arcs":[[-781,-1022,-916,1032,-973,1033]],"properties":{"count":8}},{"type":"Polygon","arcs":[[1034,-862,1035,1036,-366,1037]],"properties":{"count":6}},{"type":"Polygon","arcs":[[-953,1038,-685,1039]],"properties":{"count":4}},{"type":"Polygon","arcs":[[1040]],"properties":{"count":8}},{"type":"Polygon","arcs":[[1041,-436,1042,-848,-894]],"properties":{"count":5}},{"type":"Polygon","arcs":[[-679,-880,-615,-359,1043]],"properties":{"count":9}},{"type":"Polygon","arcs":[[-486,-872,1044]],"properties":{"count":7}},{"type":"Polygon","arcs":[[-1037,1045,-423,1046,-626,-367]],"properties":{"count":6}},{"type":"Polygon","arcs":[[-331,1047,-838,1048,-761,-239]],"properties":{"count":13}},{"type":"Polygon","arcs":[[-202,-742,-951,1049,-377,1050]],"properties":{"count":15}},{"type":"Polygon","arcs":[[1051,1052]],"properties":{"count":9}},{"type":"Polygon","arcs":[[-766,-88,-5,-25,1053]],"properties":{"count":6}},{"type":"Polygon","arcs":[[-870,1054,-924,1055,1056]],"properties":{"count":5}},{"type":"Polygon","arcs":[[1057,-876,-224,1058,-736,-926]],"properties":{"count":6}},{"type":"Polygon","arcs":[[1059,-895,-851,1060,1061,-58]],"properties":{"count":6}},{"type":"Polygon","arcs":[[-1047,-422,1062,-627]],"properties":{"count":8}},{"type":"Polygon","arcs":[[-396,1063,-492,1064,1065,-268]],"properties":{"count":6}},{"type":"Polygon","arcs":[[1066,-60,1067,-858,1068,1069]],"properties":{"count":32}},{"type":"Polygon","arcs":[[1070]],"properties":{"count":6}},{"type":"Polygon","arcs":[[-1015,-594,-1014,1071,-320,-323]],"properties":{"count":28}},{"type":"Polygon","arcs":[[-747,1072,-236,-1030,1073]],"properties":{"count":3}},{"type":"Polygon","arcs":[[-472,1074,-911,1075]],"properties":{"count":9}},{"type":"Polygon","arcs":[[1076,-631,-585]],"properties":{"count":4}},{"type":"Polygon","arcs":[[1077,-354,1078,-164]],"properties":{"count":3}},{"type":"Polygon","arcs":[[-1056,-928,-981,1079]],"properties":{"count":9}},{"type":"Polygon","arcs":[[-672,1080]],"properties":{"count":4}},{"type":"Polygon","arcs":[[-906,1081,-709,1082]],"properties":{"count":5}},{"type":"Polygon","arcs":[[-113,-96,-97,1083]],"properties":{"count":6}},{"type":"Polygon","arcs":[[1084,-547,1085,1086,1087]],"properties":{"count":3}},{"type":"Polygon","arcs":[[1088,-1001,1089,-519]],"properties":{"count":10}},{"type":"Polygon","arcs":[[-674,1090,-461,-975,1091]],"properties":{"count":5}},{"type":"Polygon","arcs":[[-405,1092,-901,1093]],"properties":{"count":5}},{"type":"Polygon","arcs":[[-964,1094]],"properties":{"count":7}},{"type":"Polygon","arcs":[[-1087,1095]],"properties":{"count":24}},{"type":"Polygon","arcs":[[1096,-84,-219,-442,-384,-969]],"properties":{"count":8}},{"type":"Polygon","arcs":[[1097,-633,-167,1098,-841]],"properties":{"count":8}},{"type":"Polygon","arcs":[[-548,-1085,1099]],"properties":{"count":3}},{"type":"Polygon","arcs":[[-944,-899,-431,1100,-414,1101]],"properties":{"count":6}},{"type":"Polygon","arcs":[[-856,1102,-1070,1103,1104,-803]],"properties":{"count":7}},{"type":"Polygon","arcs":[[1105,1106]],"properties":{"count":4}},{"type":"Polygon","arcs":[[-938,-183,1107]],"properties":{"count":6}},{"type":"Polygon","arcs":[[-611,1108]],"properties":{"count":16}},{"type":"Polygon","arcs":[[-165,-1079,-358,1109,-153,1110]],"properties":{"count":4}},{"type":"Polygon","arcs":[[-836,1111,-1107,1112,1113]],"properties":{"count":6}},{"type":"Polygon","arcs":[[-726,1114,-805,-457,1115,-790]],"properties":{"count":13}},{"type":"Polygon","arcs":[[1116,-713,1117,-648,-957]],"properties":{"count":7}},{"type":"Polygon","arcs":[[1118]],"properties":{"count":3}},{"type":"Polygon","arcs":[[1119,-602,1120,-656]],"properties":{"count":6}},{"type":"Polygon","arcs":[[-705,1121,1122,1123]],"properties":{"count":4}},{"type":"Polygon","arcs":[[-341,1124]],"properties":{"count":3}},{"type":"Polygon","arcs":[[-1110,-357,-24,1125,-154]],"properties":{"count":4}},{"type":"Polygon","arcs":[[1126,-729,-888,-831]],"properties":{"count":3}},{"type":"Polygon","arcs":[[-327,1127]],"properties":{"count":4}},{"type":"Polygon","arcs":[[-616,1128]],"properties":{"count":4}},{"type":"Polygon","arcs":[[-483,-622,-940,1129]],"properties":{"count":6}},{"type":"Polygon","arcs":[[-514,1130,-819,-132,-524,1131]],"properties":{"count":24}},{"type":"Polygon","arcs":[[-32,-170,-338,-995,-739,-444]],"properties":{"count":8}},{"type":"Polygon","arcs":[[-644,-300,1132]],"properties":{"count":4}},{"type":"Polygon","arcs":[[-234,1133,1134,-820,1135,-1031]],"properties":{"count":6}},{"type":"Polygon","arcs":[[1136,-530]],"properties":{"count":4}},{"type":"Polygon","arcs":[[1137,1138,-318,-470,-419,1139]],"properties":{"count":4}},{"type":"Polygon","arcs":[[-59,-1062,1140,1141,-859,-1068]],"properties":{"count":16}},{"type":"Polygon","arcs":[[-1052,1142]],"properties":{"count":3}},{"type":"Polygon","arcs":[[-1043,-435,1143,-1008,-687,-849]],"properties":{"count":5}},{"type":"Polygon","arcs":[[-556,1144,-892,1145,-245]],"properties":{"count":6}},{"type":"Polygon","arcs":[[-1029,-312,-798,1146,1147,-145]],"properties":{"count":7}},{"type":"Polygon","arcs":[[1148,-1123,1149,-821,-1135]],"properties":{"count":6}},{"type":"Polygon","arcs":[[-815,1150,-263,1151,-913,-1021]],"properties":{"count":3}},{"type":"Polygon","arcs":[[-1050,-950,-148,-813,-191,-378]],"properties":{"count":7}},{"type":"Polygon","arcs":[[1152,-979,-229,-1005,1153,-429]],"properties":{"count":4}},{"type":"Polygon","arcs":[[-579,-919,-61,-1067,-1103,-855]],"properties":{"count":5}},{"type":"Polygon","arcs":[[-1142,1154,1155,-1138,1156,-860]],"properties":{"count":4}},{"type":"Polygon","arcs":[[-866,1157,-810,1158]],"properties":{"count":6}},{"type":"Polygon","arcs":[[-903,-642,-771,-1011,1159]],"properties":{"count":31}},{"type":"Polygon","arcs":[[1160,-867,-1159,-809,1161,-777]],"properties":{"count":4}},{"type":"Polygon","arcs":[[-804,-1105,1162,1163,-281,-459]],"properties":{"count":5}},{"type":"Polygon","arcs":[[-960,1164,-658,1165]],"properties":{"count":4}},{"type":"Polygon","arcs":[[-1049,-837,-1114,1166,-447,-762]],"properties":{"count":4}},{"type":"Polygon","arcs":[[-186,1167,-779,1168]],"properties":{"count":4}},{"type":"Polygon","arcs":[[-1164,1169,-1038,-365,-592,-282]],"properties":{"count":5}},{"type":"Polygon","arcs":[[-349,1170,-997,1171]],"properties":{"count":10}},{"type":"Polygon","arcs":[[-543,1172,-394,1173]],"properties":{"count":4}},{"type":"Polygon","arcs":[[-984,1174,-276,-208,-216,-82]],"properties":{"count":6}},{"type":"Polygon","arcs":[[-1061,-850,-690,1175,-1155,-1141]],"properties":{"count":9}},{"type":"Polygon","arcs":[[-246,-1146,-896,-1060,-57,-918]],"properties":{"count":3}},{"type":"Polygon","arcs":[[-1104,-1069,-863,-1035,-1170,-1163]],"properties":{"count":3}},{"type":"Polygon","arcs":[[1176,-21,-356]],"properties":{"count":3}},{"type":"Polygon","arcs":[[-269,-1066,1177,-296,-643,-582]],"properties":{"count":3}},{"type":"Polygon","arcs":[[-346,-828,-754,1178,-1023]],"properties":{"count":4}},{"type":"Polygon","arcs":[[-1012,-774,-980,-1153,-428,-898]],"properties":{"count":3}},{"type":"Polygon","arcs":[[-669,-945,-1102,-413,1179]],"properties":{"count":6}},{"type":"Polygon","arcs":[[1180,-931,1181,-286,-151]],"properties":{"count":3}},{"type":"Polygon","arcs":[[-693,1182,-541,1183]],"properties":{"count":4}},{"type":"Polygon","arcs":[[-1147,-797,-887,-605,-259,1184]],"properties":{"count":3}},{"type":"Polygon","arcs":[[1185,-682,-1039,-952]],"properties":{"count":4}}]}},"arcs":[[[61538,38016],[0,1653]],[[61538,39669],[961,826],[962,-826],[0,-1653]],[[63461,38016],[-962,-826]],[[62499,37190],[-961,826]],[[71153,42975],[0,1653]],[[71153,44628],[962,826]],[[72115,45454],[961,-826],[0,-1653],[-961,-827]],[[72115,42148],[-962,827]],[[45192,20661],[0,1653]],[[45192,22314],[961,826]],[[46153,23140],[962,-826]],[[47115,22314],[0,-1653]],[[47115,20661],[-962,-826]],[[46153,19835],[-961,826]],[[46153,23140],[0,1653]],[[46153,24793],[962,827]],[[47115,25620],[961,-827]],[[48076,24793],[0,-1653]],[[48076,23140],[-961,-826]],[[59615,38016],[0,1653]],[[59615,39669],[961,826]],[[60576,40495],[962,-826]],[[61538,38016],[-962,-826]],[[60576,37190],[-961,826]],[[70192,42148],[961,827]],[[72115,42148],[0,-1653]],[[72115,40495],[-962,-826]],[[71153,39669],[-961,826],[0,1653]],[[48076,13223],[0,1653]],[[48076,14876],[962,826]],[[49038,15702],[961,-826]],[[49999,14876],[0,-1653]],[[49999,13223],[-961,-826]],[[49038,12397],[-962,826]],[[48076,23140],[962,-826]],[[49038,22314],[0,-1653]],[[49038,20661],[-962,-826]],[[48076,19835],[-961,826]],[[47115,15702],[0,1653]],[[47115,17355],[961,827]],[[48076,18182],[962,-827]],[[49038,17355],[0,-1653]],[[48076,14876],[-961,826]],[[49038,25620],[0,1652]],[[49038,27272],[961,827]],[[49999,28099],[962,-827]],[[50961,27272],[0,-1652]],[[50961,25620],[-962,-827]],[[49999,24793],[-961,827]],[[63461,38016],[961,-826],[0,-1653],[-961,-827],[-962,827],[0,1653]],[[49038,22314],[961,826]],[[49999,23140],[962,-826]],[[50961,22314],[0,-1653]],[[50961,20661],[-962,-826]],[[49999,19835],[-961,826]],[[40384,42975],[0,1653]],[[40384,44628],[962,826]],[[41346,45454],[961,-826]],[[42307,44628],[0,-1653]],[[42307,42975],[-961,-827]],[[41346,42148],[-962,827]],[[49999,23140],[0,1653]],[[50961,25620],[962,-827]],[[51923,24793],[0,-1653]],[[51923,23140],[-962,-826]],[[23077,38016],[-962,-826]],[[22115,37190],[-961,826],[0,1653],[961,826],[962,-826],[0,-1653]],[[44230,23140],[0,1653]],[[44230,24793],[962,827]],[[45192,25620],[961,-827]],[[45192,22314],[-962,826]],[[48076,8264],[0,1653]],[[48076,9917],[962,827]],[[49038,10744],[961,-827]],[[49999,9917],[0,-1653]],[[49999,8264],[-961,-826],[-962,826]],[[47115,10744],[0,1653]],[[47115,12397],[961,826]],[[49038,12397],[0,-1653]],[[48076,9917],[-961,827]],[[39423,27272],[961,827]],[[40384,28099],[962,-827]],[[41346,27272],[0,-1652]],[[41346,25620],[-962,-827]],[[40384,24793],[-961,827],[0,1652]],[[70192,45454],[0,1653]],[[70192,47107],[961,826],[962,-826],[0,-1653]],[[71153,44628],[-961,826]],[[48076,24793],[962,827]],[[61538,23140],[-962,-826]],[[60576,22314],[-961,826],[0,1653],[961,827],[962,-827],[0,-1653]],[[45192,10744],[0,1653]],[[45192,12397],[961,826]],[[46153,13223],[962,-826]],[[47115,10744],[-962,-827]],[[46153,9917],[-961,827]],[[46153,8264],[0,1653]],[[48076,8264],[-961,-826],[-962,826]],[[48076,18182],[0,1653]],[[49999,19835],[0,-1653]],[[49999,18182],[-961,-827]],[[46153,13223],[0,1653],[962,826]],[[45192,25620],[0,1652]],[[45192,27272],[961,827]],[[46153,28099],[962,-827]],[[47115,27272],[0,-1652]],[[51923,23140],[961,-826]],[[52884,22314],[0,-1653]],[[52884,20661],[-961,-826]],[[51923,19835],[-962,826]],[[43269,12397],[961,826]],[[44230,13223],[962,-826]],[[45192,10744],[-962,-827]],[[44230,9917],[-961,827],[0,1653]],[[47115,27272],[961,827]],[[48076,28099],[962,-827]],[[8654,15702],[961,-826]],[[9615,14876],[0,-1653]],[[9615,13223],[-961,-826]],[[8654,12397],[-962,826],[0,1653],[962,826]],[[38461,18182],[0,1653]],[[38461,19835],[962,826]],[[39423,20661],[961,-826]],[[40384,19835],[0,-1653]],[[40384,18182],[-961,-827]],[[39423,17355],[-962,827]],[[41346,15702],[0,1653]],[[41346,17355],[961,827],[962,-827]],[[43269,17355],[0,-1653]],[[43269,15702],[-962,-826]],[[42307,14876],[-961,826]],[[35577,10744],[0,1653]],[[35577,12397],[961,826]],[[36538,13223],[962,-826]],[[37500,12397],[0,-1653]],[[37500,10744],[-962,-827]],[[36538,9917],[-961,827]],[[32692,69421],[962,826]],[[33654,70247],[961,-826]],[[34615,69421],[0,-1653]],[[34615,67768],[-961,-827]],[[33654,66941],[-962,827],[0,1653]],[[54807,10744],[0,1653]],[[54807,12397],[962,826]],[[55769,13223],[961,-826]],[[56730,12397],[0,-1653]],[[56730,10744],[-961,-827]],[[55769,9917],[-962,827]],[[48076,28099],[0,1653]],[[48076,29752],[962,826]],[[49038,30578],[961,-826]],[[49999,29752],[0,-1653]],[[57692,34710],[961,827]],[[58653,35537],[962,-827]],[[59615,34710],[0,-1652],[-962,-827],[-961,827],[0,1652]],[[14423,95040],[0,1653]],[[14423,96693],[961,827]],[[15384,97520],[962,-827]],[[16346,96693],[0,-1653]],[[16346,95040],[-962,-826]],[[15384,94214],[-961,826]],[[54807,35537],[0,1653]],[[54807,37190],[962,826]],[[55769,38016],[961,-826]],[[56730,37190],[0,-1653]],[[56730,35537],[-961,-827]],[[55769,34710],[-962,827]],[[49999,18182],[962,-827]],[[50961,17355],[0,-1653]],[[50961,15702],[-962,-826]],[[51923,19835],[0,-1653]],[[51923,18182],[-962,-827]],[[37500,15702],[0,1653]],[[37500,17355],[961,827]],[[39423,17355],[0,-1653]],[[39423,15702],[-962,-826]],[[38461,14876],[-961,826]],[[62499,15702],[0,1653]],[[62499,17355],[962,827]],[[63461,18182],[961,-827]],[[64422,17355],[0,-1653],[-961,-826]],[[63461,14876],[-962,826]],[[23077,33058],[0,1652]],[[23077,34710],[961,827]],[[24038,35537],[962,-827]],[[25000,34710],[0,-1652]],[[25000,33058],[-962,-827],[-961,827]],[[34615,8264],[962,-826]],[[35577,7438],[0,-1653],[-962,-826],[-961,826],[0,1653],[961,826]],[[54807,5785],[0,1653]],[[54807,7438],[962,826]],[[55769,8264],[961,-826]],[[56730,7438],[0,-1653]],[[56730,5785],[-961,-826]],[[55769,4959],[-962,826]],[[61538,13223],[0,1653]],[[61538,14876],[961,826]],[[63461,14876],[0,-1653],[-962,-826]],[[62499,12397],[-961,826]],[[49999,9917],[962,827]],[[50961,10744],[962,-827]],[[51923,9917],[0,-1653]],[[51923,8264],[-962,-826],[-962,826]],[[52884,20661],[962,-826]],[[53846,19835],[0,-1653]],[[53846,18182],[-962,-827]],[[52884,17355],[-961,827]],[[42307,28099],[0,1653]],[[42307,29752],[962,826]],[[43269,30578],[961,-826]],[[44230,29752],[0,-1653]],[[44230,28099],[-961,-827]],[[43269,27272],[-962,827]],[[47115,17355],[-962,827],[0,1653]],[[34615,67768],[962,-827],[0,-1652],[-962,-827],[-961,827],[0,1652]],[[41346,27272],[961,827]],[[43269,27272],[0,-1652]],[[43269,25620],[-962,-827]],[[42307,24793],[-961,827]],[[53846,23140],[0,1653]],[[53846,24793],[961,827],[962,-827],[0,-1653],[-962,-826],[-961,826]],[[25000,13223],[0,1653]],[[25000,14876],[961,826],[962,-826],[0,-1653],[-962,-826]],[[25961,12397],[-961,826]],[[67307,57851],[0,1653]],[[67307,59504],[962,826],[961,-826]],[[69230,59504],[0,-1653]],[[69230,57851],[-961,-827]],[[68269,57024],[-962,827]],[[51923,24793],[961,827]],[[52884,25620],[962,-827]],[[53846,23140],[-962,-826]],[[63461,8264],[0,1653],[961,827],[962,-827]],[[65384,9917],[0,-1653]],[[65384,8264],[-962,-826]],[[64422,7438],[-961,826]],[[75961,20661],[0,1653]],[[75961,22314],[961,826]],[[76922,23140],[962,-826]],[[77884,22314],[0,-1653]],[[77884,20661],[-962,-826]],[[76922,19835],[-961,826]],[[37500,45454],[0,1653]],[[37500,47107],[961,826]],[[38461,47933],[962,-826]],[[39423,47107],[0,-1653]],[[39423,45454],[-962,-826]],[[38461,44628],[-961,826]],[[32692,28099],[0,1653]],[[32692,29752],[962,826]],[[33654,30578],[961,-826]],[[34615,29752],[0,-1653]],[[34615,28099],[-961,-827]],[[33654,27272],[-962,827]],[[40384,18182],[962,-827]],[[41346,15702],[-962,-826]],[[40384,14876],[-961,826]],[[58653,10744],[0,1653]],[[58653,12397],[962,826]],[[59615,13223],[961,-826]],[[60576,12397],[0,-1653]],[[60576,10744],[-961,-827]],[[59615,9917],[-962,827]],[[44230,28099],[962,-827]],[[44230,24793],[-961,827]],[[46153,52892],[0,1653]],[[46153,54545],[962,826]],[[47115,55371],[961,-826]],[[48076,54545],[0,-1653]],[[48076,52892],[-961,-826]],[[47115,52066],[-962,826]],[[41346,30578],[0,1653]],[[41346,32231],[961,827]],[[42307,33058],[962,-827]],[[43269,32231],[0,-1653]],[[42307,29752],[-961,826]],[[60576,15702],[0,1653]],[[60576,17355],[962,827],[961,-827]],[[61538,14876],[-962,826]],[[42307,33058],[0,1652]],[[42307,34710],[962,827]],[[43269,35537],[961,-827]],[[44230,34710],[0,-1652]],[[44230,33058],[-961,-827]],[[72115,40495],[961,-826],[0,-1653],[-961,-826],[-962,826],[0,1653]],[[49999,29752],[962,826]],[[50961,30578],[962,-826],[0,-1653]],[[51923,28099],[-962,-827]],[[43269,20661],[0,1653]],[[43269,22314],[961,826]],[[45192,20661],[-962,-826],[-961,826]],[[18269,10744],[0,1653]],[[18269,12397],[962,826],[961,-826]],[[20192,12397],[0,-1653]],[[20192,10744],[-961,-827],[-962,827]],[[49999,52892],[0,1653]],[[49999,54545],[962,826]],[[50961,55371],[962,-826]],[[51923,54545],[0,-1653]],[[51923,52892],[-962,-826]],[[50961,52066],[-962,826]],[[46153,47933],[0,1653]],[[46153,49586],[962,827]],[[47115,50413],[961,-827]],[[48076,49586],[0,-1653]],[[48076,47933],[-961,-826]],[[47115,47107],[-962,826]],[[54807,15702],[0,1653]],[[54807,17355],[962,827]],[[55769,18182],[961,-827]],[[56730,17355],[0,-1653]],[[56730,15702],[-961,-826]],[[55769,14876],[-962,826]],[[47115,45454],[0,1653]],[[48076,47933],[962,-826]],[[49038,47107],[0,-1653]],[[49038,45454],[-962,-826]],[[48076,44628],[-961,826]],[[46153,28099],[0,1653]],[[46153,29752],[962,826]],[[47115,30578],[961,-826]],[[44230,29752],[962,826]],[[45192,30578],[961,-826]],[[13461,97520],[0,1653],[962,826],[961,-826]],[[15384,99173],[0,-1653]],[[14423,96693],[-962,827]],[[22115,90082],[-961,-827]],[[21154,89255],[-962,827],[0,1653],[962,826],[961,-826],[0,-1653]],[[74999,23140],[0,1653]],[[74999,24793],[962,827],[961,-827]],[[76922,24793],[0,-1653]],[[75961,22314],[-962,826]],[[40384,13223],[0,1653]],[[42307,14876],[0,-1653]],[[42307,13223],[-961,-826],[-962,826]],[[52884,17355],[0,-1653]],[[52884,15702],[-961,-826]],[[51923,14876],[-962,826]],[[51923,62809],[0,1653]],[[51923,64462],[961,827],[962,-827]],[[53846,64462],[0,-1653]],[[53846,62809],[-962,-826]],[[52884,61983],[-961,826]],[[33654,25620],[0,1652]],[[34615,28099],[962,-827]],[[35577,27272],[0,-1652]],[[35577,25620],[-962,-827]],[[34615,24793],[-961,827]],[[14423,25620],[-962,-827]],[[13461,24793],[-961,827],[0,1652],[961,827],[962,-827],[0,-1652]],[[53846,29752],[961,826]],[[54807,30578],[962,-826],[0,-1653],[-962,-827],[-961,827],[0,1653]],[[76922,19835],[0,-1653],[-961,-827],[-962,827],[0,1653],[962,826]],[[57692,38016],[0,1653]],[[57692,39669],[961,826]],[[58653,40495],[962,-826]],[[59615,38016],[-962,-826]],[[58653,37190],[-961,826]],[[60576,50413],[0,1653]],[[60576,52066],[962,826]],[[61538,52892],[961,-826]],[[62499,52066],[0,-1653]],[[62499,50413],[-961,-827]],[[61538,49586],[-962,827]],[[45192,35537],[0,1653]],[[45192,37190],[961,826]],[[46153,38016],[962,-826]],[[47115,37190],[0,-1653]],[[47115,35537],[-962,-827]],[[46153,34710],[-961,827]],[[36538,38016],[0,1653]],[[36538,39669],[962,826]],[[37500,40495],[961,-826]],[[38461,39669],[0,-1653]],[[38461,38016],[-961,-826]],[[37500,37190],[-962,826]],[[52884,7438],[962,826]],[[53846,8264],[961,-826]],[[54807,5785],[-961,-826],[-962,826],[0,1653]],[[30769,57851],[0,1653],[961,826],[962,-826],[0,-1653],[-962,-827],[-961,827]],[[83653,25620],[0,1652],[962,827],[961,-827],[0,-1652],[-961,-827],[-962,827]],[[1923,18182],[0,1653],[962,826],[961,-826],[0,-1653],[-961,-827],[-962,827]],[[41346,20661],[0,1653]],[[41346,22314],[961,826]],[[42307,23140],[962,-826]],[[43269,20661],[-962,-826],[-961,826]],[[43269,15702],[961,-826]],[[44230,14876],[0,-1653]],[[43269,12397],[-962,826]],[[28846,9917],[961,827]],[[29807,10744],[962,-827]],[[30769,9917],[0,-1653]],[[30769,8264],[-962,-826],[-961,826],[0,1653]],[[45192,57024],[961,827]],[[46153,57851],[962,-827]],[[47115,57024],[0,-1653]],[[46153,54545],[-961,826],[0,1653]],[[38461,13223],[0,1653]],[[40384,13223],[-961,-826]],[[39423,12397],[-962,826]],[[53846,19835],[961,826],[962,-826]],[[55769,19835],[0,-1653]],[[54807,17355],[-961,827]],[[56730,60330],[0,1653],[962,826],[961,-826]],[[58653,61983],[0,-1653]],[[58653,60330],[-961,-826]],[[57692,59504],[-962,826]],[[30769,38016],[0,1653]],[[30769,39669],[961,826],[962,-826]],[[32692,39669],[0,-1653]],[[32692,38016],[-962,-826]],[[31730,37190],[-961,826]],[[65384,47933],[0,1653]],[[65384,49586],[961,827]],[[66345,50413],[962,-827],[0,-1653]],[[67307,47933],[-962,-826]],[[66345,47107],[-961,826]],[[47115,40495],[0,1653]],[[47115,42148],[961,827]],[[48076,42975],[962,-827]],[[49038,42148],[0,-1653]],[[49038,40495],[-962,-826]],[[48076,39669],[-961,826]],[[14423,45454],[0,1653],[961,826],[962,-826],[0,-1653],[-962,-826],[-961,826]],[[38461,67768],[-961,-827]],[[37500,66941],[-962,827],[0,1653],[962,826],[961,-826],[0,-1653]],[[65384,52892],[0,1653]],[[65384,54545],[961,826]],[[66345,55371],[962,-826]],[[67307,54545],[0,-1653],[-962,-826]],[[66345,52066],[-961,826]],[[42307,52892],[0,1653]],[[42307,54545],[962,826]],[[43269,55371],[961,-826],[0,-1653]],[[44230,52892],[-961,-826]],[[43269,52066],[-962,826]],[[35577,35537],[0,1653]],[[35577,37190],[961,826]],[[37500,37190],[0,-1653]],[[37500,35537],[-962,-827]],[[36538,34710],[-961,827]],[[42307,23140],[0,1653]],[[3846,52892],[0,1653],[962,826],[961,-826],[0,-1653],[-961,-826],[-962,826]],[[49999,13223],[962,-826]],[[50961,12397],[0,-1653]],[[79807,20661],[0,1653]],[[79807,22314],[961,826]],[[80768,23140],[962,-826],[0,-1653],[-962,-826],[-961,826]],[[17308,57851],[961,-827]],[[18269,57024],[0,-1653],[-961,-826],[-962,826],[0,1653],[962,827]],[[30769,28099],[0,1653],[961,826]],[[31730,30578],[962,-826]],[[32692,28099],[-962,-827]],[[31730,27272],[-961,827]],[[7692,29752],[0,-1653]],[[7692,28099],[-961,-827],[-962,827],[0,1653],[962,826],[961,-826]],[[40384,33058],[0,1652]],[[40384,34710],[962,827]],[[41346,35537],[961,-827]],[[41346,32231],[-962,827]],[[29807,75206],[0,1653]],[[29807,76859],[962,826],[961,-826],[0,-1653],[-961,-827]],[[30769,74379],[-962,827]],[[11538,57851],[0,1653],[962,826],[961,-826],[0,-1653],[-961,-827],[-962,827]],[[16346,65289],[0,1652],[962,827],[961,-827],[0,-1652],[-961,-827],[-962,827]],[[29807,71900],[962,827]],[[30769,72727],[961,-827]],[[31730,71900],[0,-1653]],[[31730,70247],[-961,-826],[-962,826],[0,1653]],[[48076,42975],[0,1653]],[[49038,45454],[961,-826]],[[49999,44628],[0,-1653]],[[49999,42975],[-961,-827]],[[31730,30578],[0,1653]],[[31730,32231],[962,827]],[[32692,33058],[962,-827]],[[33654,32231],[0,-1653]],[[35577,20661],[0,1653]],[[35577,22314],[961,826]],[[36538,23140],[962,-826]],[[37500,22314],[0,-1653]],[[37500,20661],[-962,-826]],[[36538,19835],[-961,826]],[[18269,50413],[0,1653],[962,826],[961,-826],[0,-1653]],[[20192,50413],[-961,-827]],[[19231,49586],[-962,827]],[[48076,57851],[0,1653]],[[48076,59504],[962,826]],[[49038,60330],[961,-826]],[[49999,59504],[0,-1653]],[[49999,57851],[-961,-827]],[[49038,57024],[-962,827]],[[49999,59504],[962,826]],[[50961,60330],[962,-826]],[[51923,59504],[0,-1653]],[[51923,57851],[-962,-827]],[[50961,57024],[-962,827]],[[65384,18182],[0,1653]],[[65384,19835],[961,826]],[[66345,20661],[962,-826]],[[67307,19835],[0,-1653]],[[67307,18182],[-962,-827]],[[66345,17355],[-961,827]],[[16346,80164],[0,1653],[962,827],[961,-827],[0,-1653],[-961,-826],[-962,826]],[[27884,20661],[0,1653]],[[27884,22314],[962,826],[961,-826],[0,-1653],[-961,-826],[-962,826]],[[15384,13223],[0,1653],[962,826]],[[16346,15702],[962,-826]],[[17308,14876],[0,-1653]],[[17308,13223],[-962,-826]],[[16346,12397],[-962,826]],[[31730,10744],[0,1653]],[[31730,12397],[962,826],[962,-826]],[[33654,12397],[0,-1653]],[[33654,10744],[-962,-827]],[[32692,9917],[-962,827]],[[52884,45454],[0,1653]],[[52884,47107],[962,826]],[[53846,47933],[961,-826]],[[54807,47107],[0,-1653]],[[54807,45454],[-961,-826]],[[53846,44628],[-962,826]],[[34615,8264],[0,1653]],[[34615,9917],[962,827]],[[36538,9917],[0,-1653],[-961,-826]],[[16346,10744],[0,1653]],[[17308,13223],[961,-826]],[[18269,10744],[-961,-827],[-962,827]],[[7692,52892],[0,1653],[962,826],[961,-826],[0,-1653],[-961,-826],[-962,826]],[[25961,60330],[962,-826]],[[26923,59504],[0,-1653],[-962,-827],[-961,827],[0,1653],[961,826]],[[0,52892],[0,1653],[962,826],[961,-826],[0,-1653],[-961,-826],[-962,826]],[[61538,52892],[0,1653]],[[61538,54545],[961,826]],[[62499,55371],[962,-826]],[[63461,54545],[0,-1653]],[[63461,52892],[-962,-826]],[[50961,55371],[0,1653]],[[51923,57851],[961,-827],[0,-1653],[-961,-826]],[[42307,57851],[0,1653]],[[42307,59504],[962,826]],[[43269,60330],[961,-826]],[[44230,59504],[0,-1653]],[[44230,57851],[-961,-827]],[[43269,57024],[-962,827]],[[16346,40495],[0,1653],[962,827],[961,-827],[0,-1653]],[[18269,40495],[-961,-826]],[[17308,39669],[-962,826]],[[32692,33058],[0,1652]],[[32692,34710],[962,827]],[[33654,35537],[961,-827]],[[34615,34710],[0,-1652]],[[34615,33058],[-961,-827]],[[36538,47933],[0,1653]],[[36538,49586],[962,827],[961,-827]],[[38461,49586],[0,-1653]],[[37500,47107],[-962,826]],[[51923,62809],[-962,-826]],[[50961,61983],[-962,826],[0,1653],[962,827],[962,-827]],[[35577,45454],[0,1653]],[[35577,47107],[961,826]],[[37500,45454],[-962,-826]],[[36538,44628],[-961,826]],[[30769,3306],[0,1653],[961,826],[962,-826],[0,-1653],[-962,-827],[-961,827]],[[41346,55371],[0,1653]],[[41346,57024],[961,827]],[[43269,57024],[0,-1653]],[[42307,54545],[-961,826]],[[9615,13223],[962,-826],[0,-1653],[-962,-827],[-961,827],[0,1653]],[[11538,18182],[0,1653],[962,826],[961,-826],[0,-1653],[-961,-827],[-962,827]],[[55769,54545],[0,-1653]],[[55769,52892],[-962,-826],[-961,826],[0,1653],[961,826],[962,-826]],[[55769,57851],[0,1653]],[[55769,59504],[961,826]],[[57692,59504],[0,-1653],[-962,-827],[-961,827]],[[37500,40495],[0,1653]],[[37500,42148],[961,827]],[[38461,42975],[962,-827]],[[39423,42148],[0,-1653]],[[39423,40495],[-962,-826]],[[47115,50413],[0,1653]],[[48076,52892],[962,-826]],[[49038,52066],[0,-1653]],[[49038,50413],[-962,-827]],[[51923,38016],[961,-826]],[[52884,37190],[0,-1653]],[[52884,35537],[-961,-827],[-962,827],[0,1653],[962,826]],[[39423,55371],[0,1653]],[[39423,57024],[961,827],[962,-827]],[[41346,55371],[-962,-826],[-961,826]],[[27884,20661],[-961,-826],[-962,826],[0,1653],[962,826],[961,-826]],[[44230,34710],[962,827]],[[46153,34710],[0,-1652]],[[46153,33058],[-961,-827]],[[45192,32231],[-962,827]],[[23077,18182],[-962,-827]],[[22115,17355],[-961,827],[0,1653],[961,826],[962,-826],[0,-1653]],[[68269,20661],[0,1653]],[[68269,22314],[961,826]],[[69230,23140],[962,-826]],[[70192,22314],[0,-1653]],[[70192,20661],[-962,-826]],[[69230,19835],[-961,826]],[[54807,45454],[962,-826],[0,-1653],[-962,-827],[-961,827],[0,1653]],[[59615,13223],[0,1653]],[[59615,14876],[961,826]],[[61538,13223],[-962,-826]],[[4808,20661],[0,1653],[961,826],[962,-826],[0,-1653],[-962,-826],[-961,826]],[[33654,70247],[0,1653]],[[33654,71900],[961,827],[962,-827],[0,-1653],[-962,-826]],[[23077,69421],[961,826]],[[24038,70247],[962,-826],[0,-1653],[-962,-827],[-961,827],[0,1653]],[[59615,52892],[0,1653]],[[59615,54545],[961,826],[962,-826]],[[60576,52066],[-961,826]],[[29807,25620],[0,1652]],[[29807,27272],[962,827]],[[31730,27272],[0,-1652]],[[31730,25620],[-961,-827],[-962,827]],[[23077,52892],[0,1653],[961,826],[962,-826],[0,-1653],[-962,-826],[-961,826]],[[22115,60330],[0,1653],[962,826],[961,-826],[0,-1653],[-961,-826],[-962,826]],[[36538,18182],[0,1653]],[[37500,20661],[961,-826]],[[37500,17355],[-962,827]],[[6731,45454],[0,1653],[961,826],[962,-826],[0,-1653],[-962,-826],[-961,826]],[[47115,37190],[961,826]],[[48076,38016],[962,-826]],[[49038,37190],[0,-1653]],[[49038,35537],[-962,-827]],[[48076,34710],[-961,827]],[[52884,37190],[962,826]],[[53846,38016],[961,-826]],[[54807,35537],[-961,-827]],[[53846,34710],[-962,827]],[[26923,69421],[961,826]],[[27884,70247],[962,-826],[0,-1653],[-962,-827],[-961,827],[0,1653]],[[37500,12397],[961,826]],[[39423,12397],[0,-1653],[-962,-827],[-961,827]],[[62499,60330],[0,1653]],[[62499,61983],[962,826],[961,-826],[0,-1653]],[[64422,60330],[-961,-826]],[[63461,59504],[-962,826]],[[49038,52066],[961,826]],[[50961,52066],[0,-1653]],[[50961,50413],[-962,-827]],[[49999,49586],[-961,827]],[[29807,10744],[0,1653]],[[29807,12397],[962,826]],[[30769,13223],[961,-826]],[[31730,10744],[-961,-827]],[[70192,55371],[0,1653]],[[70192,57024],[961,827]],[[71153,57851],[962,-827],[0,-1653],[-962,-826],[-961,826]],[[68269,15702],[0,1653]],[[68269,17355],[961,827]],[[69230,18182],[962,-827]],[[70192,17355],[0,-1653],[-962,-826],[-961,826]],[[32692,47933],[0,1653]],[[32692,49586],[962,827],[961,-827]],[[34615,49586],[0,-1653]],[[34615,47933],[-961,-826]],[[33654,47107],[-962,826]],[[14423,95040],[-962,-826],[-961,826],[0,1653],[961,827]],[[23077,28099],[-962,-827]],[[22115,27272],[-961,827],[0,1653],[961,826],[962,-826],[0,-1653]],[[26923,47933],[0,1653],[961,827],[962,-827],[0,-1653],[-962,-826],[-961,826]],[[61538,47933],[0,1653]],[[62499,50413],[962,-827]],[[63461,49586],[0,-1653]],[[63461,47933],[-962,-826]],[[62499,47107],[-961,826]],[[26923,79338],[961,826]],[[27884,80164],[962,-826],[0,-1653]],[[28846,77685],[-962,-826]],[[27884,76859],[-961,826],[0,1653]],[[56730,50413],[0,1653]],[[56730,52066],[962,826]],[[57692,52892],[961,-826]],[[58653,52066],[0,-1653]],[[58653,50413],[-961,-827]],[[57692,49586],[-962,827]],[[37500,55371],[0,1653]],[[37500,57024],[961,827],[962,-827]],[[39423,55371],[-962,-826]],[[38461,54545],[-961,826]],[[44230,47933],[0,1653]],[[44230,49586],[962,827]],[[45192,50413],[961,-827]],[[46153,47933],[-961,-826]],[[45192,47107],[-962,826]],[[39423,61983],[961,826]],[[40384,62809],[962,-826]],[[41346,61983],[0,-1653]],[[41346,60330],[-962,-826],[-961,826],[0,1653]],[[69230,59504],[962,826],[961,-826],[0,-1653]],[[70192,57024],[-962,827]],[[56730,47107],[962,826]],[[57692,47933],[961,-826],[0,-1653],[-961,-826],[-962,826],[0,1653]],[[17308,57851],[0,1653]],[[17308,59504],[961,826]],[[18269,60330],[962,-826],[0,-1653],[-962,-827]],[[66345,15702],[0,1653]],[[67307,18182],[962,-827]],[[68269,15702],[-962,-826]],[[67307,14876],[-962,826]],[[70192,52066],[0,-1653]],[[70192,50413],[-962,-827],[-961,827],[0,1653],[961,826],[962,-826]],[[63461,18182],[0,1653]],[[63461,19835],[961,826]],[[64422,20661],[962,-826]],[[65384,18182],[-962,-827]],[[29807,15702],[0,1653],[962,827],[961,-827],[0,-1653],[-961,-826]],[[30769,14876],[-962,826]],[[74999,23140],[-961,-826],[-962,826],[0,1653],[962,827],[961,-827]],[[38461,67768],[962,-827],[0,-1652]],[[39423,65289],[-962,-827]],[[38461,64462],[-961,827],[0,1652]],[[8654,15702],[0,1653],[961,827],[962,-827],[0,-1653],[-962,-826]],[[55769,19835],[961,826]],[[56730,20661],[962,-826]],[[57692,19835],[0,-1653]],[[57692,18182],[-962,-827]],[[31730,20661],[0,1653],[962,826],[962,-826],[0,-1653],[-962,-826],[-962,826]],[[36538,33058],[0,1652]],[[37500,35537],[961,-827]],[[38461,34710],[0,-1652]],[[38461,33058],[-961,-827]],[[37500,32231],[-962,827]],[[35577,40495],[0,1653]],[[35577,42148],[961,827]],[[36538,42975],[962,-827]],[[36538,39669],[-961,826]],[[50961,60330],[0,1653]],[[52884,61983],[0,-1653],[-961,-826]],[[25000,8264],[0,1653]],[[25000,9917],[961,827]],[[25961,10744],[962,-827],[0,-1653],[-962,-826]],[[25961,7438],[-961,826]],[[50961,12397],[962,826]],[[51923,13223],[961,-826]],[[52884,12397],[0,-1653]],[[52884,10744],[-961,-827]],[[31730,35537],[962,-827]],[[31730,32231],[-961,827],[0,1652],[961,827]],[[60576,5785],[0,1653]],[[60576,7438],[962,826],[961,-826]],[[62499,7438],[0,-1653]],[[62499,5785],[-961,-826],[-962,826]],[[36538,28099],[0,1653]],[[36538,29752],[962,826]],[[37500,30578],[961,-826]],[[38461,29752],[0,-1653]],[[38461,28099],[-961,-827]],[[37500,27272],[-962,827]],[[16346,95040],[962,-826],[0,-1653],[-962,-826],[-962,826],[0,1653]],[[26923,69421],[-962,826],[0,1653],[962,827],[961,-827],[0,-1653]],[[70192,52066],[961,826],[962,-826]],[[72115,52066],[0,-1653]],[[72115,50413],[-962,-827],[-961,827]],[[72115,52066],[961,826],[962,-826],[0,-1653],[-962,-827],[-961,827]],[[77884,22314],[961,826]],[[78845,23140],[962,-826]],[[79807,20661],[-962,-826],[-961,826]],[[68269,45454],[0,1653]],[[68269,47107],[961,826],[962,-826]],[[70192,45454],[-962,-826]],[[69230,44628],[-961,826]],[[25961,42148],[0,-1653]],[[25961,40495],[-961,-826],[-962,826],[0,1653],[962,827],[961,-827]],[[22115,80164],[0,1653],[962,827],[961,-827],[0,-1653],[-961,-826],[-962,826]],[[63461,57851],[0,1653]],[[64422,60330],[962,-826]],[[65384,59504],[0,-1653]],[[65384,57851],[-962,-827]],[[64422,57024],[-961,827]],[[25961,35537],[0,1653],[962,826]],[[26923,38016],[961,-826]],[[27884,37190],[0,-1653],[-961,-827]],[[26923,34710],[-962,827]],[[56730,5785],[962,-826]],[[57692,4959],[0,-1653]],[[57692,3306],[-962,-827],[-961,827],[0,1653]],[[75961,37190],[961,826]],[[76922,38016],[962,-826],[0,-1653]],[[77884,35537],[-962,-827]],[[76922,34710],[-961,827],[0,1653]],[[36538,13223],[0,1653]],[[36538,14876],[962,826]],[[37500,30578],[0,1653]],[[38461,33058],[962,-827]],[[39423,32231],[0,-1653]],[[39423,30578],[-962,-826]],[[37500,22314],[961,826],[962,-826]],[[39423,22314],[0,-1653]],[[57692,18182],[961,-827]],[[58653,17355],[0,-1653]],[[58653,15702],[-961,-826]],[[57692,14876],[-962,826]],[[17308,59504],[-962,826],[0,1653],[962,826],[961,-826],[0,-1653]],[[19231,67768],[0,1653],[961,826],[962,-826],[0,-1653],[-962,-827],[-961,827]],[[39423,35537],[0,1653]],[[39423,37190],[961,826]],[[40384,38016],[962,-826]],[[41346,37190],[0,-1653]],[[40384,34710],[-961,827]],[[34615,33058],[962,-827]],[[35577,32231],[0,-1653]],[[35577,30578],[-962,-826]],[[28846,38016],[0,1653]],[[28846,39669],[961,826]],[[29807,40495],[962,-826]],[[30769,38016],[-962,-826],[-961,826]],[[55769,8264],[0,1653]],[[56730,10744],[962,-827]],[[57692,9917],[0,-1653]],[[57692,8264],[-962,-826]],[[34615,13223],[0,1653],[962,826]],[[35577,15702],[961,-826]],[[35577,12397],[-962,826]],[[67307,8264],[0,1653]],[[67307,9917],[962,827]],[[68269,10744],[961,-827],[0,-1653],[-961,-826],[-962,826]],[[27884,30578],[0,1653],[962,827],[961,-827],[0,-1653],[-961,-826],[-962,826]],[[75961,40495],[0,1653],[961,827],[962,-827],[0,-1653],[-962,-826]],[[76922,39669],[-961,826]],[[69230,23140],[0,1653],[962,827],[961,-827],[0,-1653],[-961,-826]],[[35577,30578],[961,-826]],[[36538,28099],[-961,-827]],[[70192,30578],[0,1653],[961,827],[962,-827],[0,-1653],[-962,-826],[-961,826]],[[32692,39669],[962,826]],[[33654,40495],[961,-826]],[[34615,39669],[0,-1653]],[[34615,38016],[-961,-826]],[[33654,37190],[-962,826]],[[77884,25620],[0,1652],[961,827],[962,-827]],[[79807,27272],[0,-1652]],[[79807,25620],[-962,-827]],[[78845,24793],[-961,827]],[[67307,47933],[962,-826]],[[68269,45454],[-962,-826],[-962,826],[0,1653]],[[53846,33058],[961,-827]],[[54807,32231],[0,-1653]],[[53846,29752],[-962,826],[0,1653],[962,827]],[[49999,49586],[0,-1653],[-961,-826]],[[16346,10744],[-962,-827],[-961,827],[0,1653],[961,826]],[[62499,12397],[0,-1653],[-961,-827],[-962,827]],[[42307,47933],[0,1653]],[[42307,49586],[962,827]],[[43269,50413],[961,-827]],[[44230,47933],[-961,-826]],[[43269,47107],[-962,826]],[[7692,29752],[962,826],[961,-826]],[[9615,29752],[0,-1653]],[[9615,28099],[-961,-827],[-962,827]],[[39423,40495],[961,-826]],[[40384,39669],[0,-1653]],[[39423,37190],[-962,826]],[[43269,40495],[0,1653]],[[43269,42148],[961,827]],[[44230,42975],[962,-827]],[[45192,42148],[0,-1653]],[[45192,40495],[-962,-826]],[[44230,39669],[-961,826]],[[55769,57851],[-962,-827],[-961,827],[0,1653],[961,826],[962,-826]],[[25961,42148],[962,827],[961,-827]],[[27884,42148],[0,-1653]],[[27884,40495],[-961,-826]],[[26923,39669],[-962,826]],[[20192,12397],[962,826],[961,-826],[0,-1653]],[[22115,10744],[-961,-827]],[[21154,9917],[-962,827]],[[19231,47933],[0,1653]],[[20192,50413],[962,-827],[0,-1653],[-962,-826],[-961,826]],[[23077,14876],[961,826]],[[24038,15702],[962,-826]],[[25000,13223],[-962,-826]],[[24038,12397],[-961,826],[0,1653]],[[57692,52892],[0,1653]],[[57692,54545],[961,826],[962,-826]],[[59615,52892],[-962,-826]],[[77884,55371],[0,1653],[961,827],[962,-827],[0,-1653],[-962,-826],[-961,826]],[[33654,25620],[-962,-827],[-962,827]],[[31730,35537],[0,1653]],[[33654,37190],[0,-1653]],[[27884,55371],[0,1653],[962,827],[961,-827],[0,-1653],[-961,-826],[-962,826]],[[58653,17355],[962,827],[961,-827]],[[59615,14876],[-962,826]],[[34615,39669],[962,826]],[[35577,37190],[-962,826]],[[34615,34710],[962,827]],[[36538,33058],[-961,-827]],[[40384,47933],[0,1653]],[[40384,49586],[962,827]],[[41346,50413],[961,-827]],[[42307,47933],[-961,-826]],[[41346,47107],[-962,826]],[[63461,54545],[961,826]],[[64422,55371],[962,-826]],[[65384,52892],[-962,-826]],[[64422,52066],[-961,826]],[[60576,60330],[0,1653]],[[60576,61983],[962,826],[961,-826]],[[62499,60330],[-961,-826]],[[61538,59504],[-962,826]],[[61538,23140],[961,-826]],[[62499,22314],[0,-1653]],[[62499,20661],[-961,-826],[-962,826],[0,1653]],[[11538,62809],[0,1653],[962,827],[961,-827],[0,-1653],[-961,-826],[-962,826]],[[50961,45454],[0,1653],[962,826],[961,-826]],[[52884,45454],[-961,-826]],[[51923,44628],[-962,826]],[[58653,5785],[0,1653]],[[58653,7438],[962,826]],[[59615,8264],[961,-826]],[[60576,5785],[-961,-826]],[[59615,4959],[-962,826]],[[38461,42975],[0,1653]],[[39423,45454],[961,-826]],[[40384,42975],[-961,-827]],[[66345,20661],[0,1653],[962,826],[962,-826]],[[68269,20661],[-962,-826]],[[99037,30578],[-961,-826]],[[98076,29752],[-962,826],[0,1653],[962,827],[961,-827],[0,-1653]],[[23077,8264],[0,1653]],[[23077,9917],[961,827]],[[24038,10744],[962,-827]],[[25000,8264],[-962,-826]],[[24038,7438],[-961,826]],[[48076,33058],[0,1652]],[[49038,35537],[961,-827],[0,-1652]],[[49999,33058],[-961,-827]],[[49038,32231],[-962,827]],[[76922,39669],[0,-1653]],[[75961,37190],[-962,826],[0,1653],[962,826]],[[51923,28099],[961,-827],[0,-1652]],[[22115,35537],[0,1653]],[[23077,38016],[961,-826],[0,-1653]],[[23077,34710],[-962,827]],[[35577,15702],[0,1653]],[[35577,17355],[961,827]],[[54807,15702],[-961,-826]],[[53846,14876],[-962,826]],[[9615,23140],[0,1653],[962,827],[961,-827],[0,-1653],[-961,-826],[-962,826]],[[64422,52066],[0,-1653]],[[64422,50413],[-961,-827]],[[23077,28099],[961,-827],[0,-1652],[-961,-827],[-962,827],[0,1652]],[[3846,38016],[0,1653],[962,826],[961,-826],[0,-1653],[-961,-826],[-962,826]],[[52884,12397],[962,826]],[[53846,13223],[961,-826]],[[54807,10744],[-961,-827]],[[53846,9917],[-962,827]],[[35577,55371],[961,-826]],[[36538,54545],[0,-1653]],[[36538,52892],[-961,-826],[-962,826],[0,1653],[962,826]],[[30769,52892],[0,1653],[961,826],[962,-826],[0,-1653],[-962,-826]],[[31730,52066],[-961,826]],[[28846,13223],[961,-826]],[[28846,9917],[-962,827],[0,1653],[962,826]],[[31730,52066],[0,-1653]],[[31730,50413],[-961,-827]],[[30769,49586],[-962,827],[0,1653],[962,826]],[[10577,35537],[0,1653],[961,826],[962,-826],[0,-1653],[-962,-827],[-961,827]],[[62499,47107],[0,-1653]],[[62499,45454],[-961,-826]],[[61538,44628],[-962,826],[0,1653],[962,826]],[[15384,99173],[962,826],[962,-826],[0,-1653],[-962,-827]],[[99037,30578],[962,-826],[0,-1653],[-962,-827],[-961,827],[0,1653]],[[39423,22314],[961,826]],[[40384,23140],[962,-826]],[[41346,20661],[-962,-826]],[[43269,17355],[961,827],[962,-827],[0,-1653],[-962,-826]],[[32692,9917],[0,-1653],[-962,-826],[-961,826]],[[58653,2479],[962,827]],[[59615,3306],[961,-827],[0,-1653],[-961,-826],[-962,826],[0,1653]],[[28846,74379],[961,827]],[[30769,74379],[0,-1652]],[[29807,71900],[-961,827],[0,1652]],[[65384,59504],[961,826],[962,-826]],[[67307,57851],[-962,-827]],[[66345,57024],[-961,827]],[[24038,5785],[0,1653]],[[25961,7438],[0,-1653],[-961,-826],[-962,826]],[[39423,30578],[961,-826]],[[40384,29752],[0,-1653]],[[39423,27272],[-962,827]],[[23077,18182],[961,-827],[0,-1653]],[[23077,14876],[-962,826],[0,1653]],[[2885,75206],[0,1653],[961,826],[962,-826],[0,-1653],[-962,-827],[-961,827]],[[31730,71900],[962,827],[962,-827]],[[32692,69421],[-962,826]],[[36538,42975],[0,1653]],[[9615,29752],[962,826],[961,-826],[0,-1653],[-961,-827],[-962,827]],[[10577,45454],[0,1653],[961,826],[962,-826],[0,-1653],[-962,-826],[-961,826]],[[16346,15702],[0,1653],[962,827],[961,-827],[0,-1653],[-961,-826]],[[51923,13223],[0,1653]],[[53846,14876],[0,-1653]],[[14423,22314],[961,826]],[[15384,23140],[962,-826],[0,-1653],[-962,-826],[-961,826],[0,1653]],[[55769,54545],[961,826],[962,-826]],[[56730,52066],[-961,826]],[[55769,47933],[0,1653]],[[55769,49586],[961,827]],[[57692,49586],[0,-1653]],[[56730,47107],[-961,826]],[[68269,55371],[0,1653]],[[70192,55371],[-962,-826],[-961,826]],[[12500,50413],[0,1653],[961,826],[962,-826],[0,-1653],[-962,-827],[-961,827]],[[45192,50413],[0,1653]],[[45192,52066],[961,826]],[[62499,55371],[0,1653]],[[62499,57024],[962,827]],[[64422,57024],[0,-1653]],[[48076,33058],[-961,-827]],[[47115,32231],[-962,827]],[[45192,32231],[0,-1653]],[[39423,65289],[961,-827],[0,-1653]],[[39423,61983],[-962,826],[0,1653]],[[77884,35537],[961,-827],[0,-1652],[-961,-827],[-962,827],[0,1652]],[[34615,49586],[962,827],[961,-827]],[[35577,47107],[-962,826]],[[57692,8264],[961,-826]],[[58653,5785],[-961,-826]],[[35577,25620],[961,-827]],[[36538,24793],[0,-1653]],[[35577,22314],[-962,826],[0,1653]],[[35577,45454],[-962,-826],[-961,826],[0,1653]],[[56730,20661],[0,1653],[962,826],[961,-826],[0,-1653],[-961,-826]],[[48076,59504],[-961,826],[0,1653],[961,826],[962,-826],[0,-1653]],[[55769,14876],[0,-1653]],[[64422,5785],[0,1653]],[[65384,8264],[961,-826]],[[66345,7438],[0,-1653],[-961,-826],[-962,826]],[[59615,4959],[0,-1653]],[[58653,2479],[-961,827]],[[44230,38016],[0,1653]],[[45192,40495],[961,-826]],[[46153,39669],[0,-1653]],[[45192,37190],[-962,826]],[[36538,54545],[962,826]],[[38461,54545],[0,-1653],[-961,-826],[-962,826]],[[30769,42975],[0,1653],[961,826],[962,-826],[0,-1653],[-962,-827],[-961,827]],[[41346,50413],[0,1653],[961,826]],[[43269,52066],[0,-1653]],[[60576,50413],[-961,-827],[-962,827]],[[19231,47933],[-962,-826],[-961,826],[0,1653],[961,827]],[[46153,39669],[962,826]],[[48076,39669],[0,-1653]],[[76922,24793],[962,827]],[[78845,24793],[0,-1653]],[[53846,9917],[0,-1653]],[[52884,7438],[-961,826]],[[16346,27272],[962,827]],[[17308,28099],[961,-827],[0,-1652],[-961,-827],[-962,827],[0,1652]],[[70192,42148],[-962,827],[0,1653]],[[22115,10744],[962,-827]],[[23077,8264],[-962,-826]],[[22115,7438],[-961,826],[0,1653]],[[24038,10744],[0,1653]],[[25961,12397],[0,-1653]],[[41346,45454],[0,1653]],[[43269,47107],[0,-1653]],[[43269,45454],[-962,-826]],[[49038,40495],[961,-826],[0,-1653],[-961,-826]],[[47115,57024],[961,827]],[[49038,57024],[0,-1653]],[[49038,55371],[-962,-826]],[[41346,40495],[0,1653]],[[42307,42975],[962,-827]],[[43269,40495],[-962,-826]],[[42307,39669],[-961,826]],[[35577,60330],[0,1653],[961,826],[962,-826],[0,-1653],[-962,-826],[-961,826]],[[47115,32231],[0,-1653]],[[62499,7438],[962,826]],[[64422,5785],[-961,-826],[-962,826]],[[49999,44628],[962,826]],[[51923,44628],[0,-1653],[-962,-827],[-962,827]],[[51923,38016],[0,1653],[961,826],[962,-826],[0,-1653]],[[55769,38016],[0,1653],[961,826],[962,-826]],[[57692,38016],[-962,-826]],[[24038,5785],[-961,-826],[-962,826],[0,1653]],[[26923,79338],[-962,826],[0,1653],[962,827],[961,-827],[0,-1653]],[[62499,22314],[962,826],[961,-826],[0,-1653]],[[63461,19835],[-962,826]],[[46153,8264],[-961,-826],[-962,826],[0,1653]],[[17308,38016],[0,1653]],[[18269,40495],[962,-826],[0,-1653]],[[19231,38016],[-962,-826]],[[18269,37190],[-961,826]],[[53846,47933],[0,1653],[961,827],[962,-827]],[[55769,47933],[-962,-826]],[[28846,77685],[961,-826]],[[28846,74379],[-962,827],[0,1653]],[[58653,61983],[962,826],[961,-826]],[[60576,60330],[-961,-826],[-962,826]],[[62499,45454],[962,-826],[0,-1653],[-962,-827],[-961,827],[0,1653]],[[19231,38016],[961,-826],[0,-1653],[-961,-827],[-962,827],[0,1653]],[[40384,23140],[0,1653]],[[53846,33058],[0,1652]],[[55769,34710],[0,-1652],[-962,-827]],[[17308,38016],[-962,-826],[-962,826],[0,1653],[962,826]],[[66345,52066],[0,-1653]],[[65384,49586],[-962,827]],[[40384,39669],[962,826]],[[42307,39669],[0,-1653]],[[42307,38016],[-961,-826]],[[80768,28099],[0,1653],[962,826],[961,-826],[0,-1653],[-961,-827]],[[81730,27272],[-962,827]],[[23077,33058],[-962,-827],[-961,827],[0,1652],[961,827]],[[23077,69421],[-962,826],[0,1653],[962,827],[961,-827],[0,-1653]],[[58653,37190],[0,-1653]],[[57692,34710],[-962,827]],[[79807,27272],[961,827]],[[81730,27272],[0,-1652],[-962,-827]],[[80768,24793],[-961,827]],[[38461,34710],[962,827]],[[40384,33058],[-961,-827]],[[28846,13223],[0,1653],[961,826]],[[30769,14876],[0,-1653]],[[72115,15702],[0,1653],[961,827],[962,-827],[0,-1653],[-962,-826],[-961,826]],[[69230,18182],[0,1653]],[[70192,20661],[961,-826],[0,-1653],[-961,-827]],[[67307,14876],[0,-1653]],[[67307,13223],[-962,-826]],[[66345,12397],[-961,826],[0,1653],[961,826]],[[53846,64462],[961,827],[962,-827],[0,-1653],[-962,-826],[-961,826]],[[60576,37190],[0,-1653],[-961,-827]],[[33654,40495],[0,1653],[961,827],[962,-827]],[[22115,90082],[962,-827],[0,-1653],[-962,-826],[-961,826],[0,1653]],[[29807,25620],[-961,-827],[-962,827],[0,1652],[962,827],[961,-827]],[[35577,17355],[-962,827],[0,1653],[962,826]],[[33654,12397],[961,826]],[[34615,9917],[-961,827]],[[51923,52892],[961,-826],[0,-1653],[-961,-827],[-962,827]],[[65384,9917],[961,827]],[[66345,10744],[962,-827]],[[67307,8264],[-962,-826]],[[25961,60330],[0,1653],[962,826],[961,-826],[0,-1653],[-961,-826]],[[46153,42975],[0,1653]],[[46153,44628],[962,826]],[[47115,42148],[-962,827]],[[43269,45454],[961,-826]],[[44230,44628],[0,-1653]],[[16346,27272],[-962,827],[0,1653],[962,826],[962,-826],[0,-1653]],[[44230,52892],[962,-826]],[[38461,49586],[962,827],[961,-827]],[[40384,47933],[-961,-826]],[[57692,14876],[0,-1653]],[[57692,13223],[-962,-826]],[[66345,10744],[0,1653]],[[67307,13223],[962,-826],[0,-1653]],[[57692,9917],[961,827]],[[59615,9917],[0,-1653]],[[66345,55371],[0,1653]],[[68269,55371],[-962,-826]],[[44230,44628],[962,826]],[[45192,45454],[961,-826]],[[46153,42975],[-961,-827]],[[27884,42148],[962,827],[961,-827],[0,-1653]],[[28846,39669],[-962,826]],[[62499,57024],[-961,827],[0,1653]],[[26923,38016],[0,1653]],[[28846,38016],[-962,-826]],[[42307,38016],[962,-826]],[[43269,37190],[0,-1653]],[[31730,50413],[962,-827]],[[32692,47933],[-962,-826],[-961,826],[0,1653]],[[80768,24793],[0,-1653]],[[25000,34710],[961,827]],[[26923,34710],[0,-1652],[-962,-827],[-961,827]],[[43269,37190],[961,826]],[[14423,25620],[961,-827],[0,-1653]],[[14423,22314],[-962,826],[0,1653]],[[44230,59504],[962,826],[961,-826],[0,-1653]],[[45192,57024],[-962,827]],[[40384,29752],[962,826]],[[45192,47107],[0,-1653]],[[58653,40495],[0,1653],[962,827],[961,-827],[0,-1653]],[[49038,55371],[961,-826]],[[37500,27272],[0,-1652],[-962,-827]],[[65384,47933],[-962,-826],[-961,826]],[[49038,30578],[0,1653]],[[49999,33058],[962,-827],[0,-1653]],[[41346,61983],[961,826],[962,-826],[0,-1653]],[[42307,59504],[-961,826]],[[58653,12397],[-961,826]],[[35577,55371],[0,1653],[961,827],[962,-827]]],"bbox":[140.829601,-38.96,149.793052,-34.12],"transform":{"scale":[0.00008963540635406347,0.00004840048400484008],"translate":[140.829601,-38.96]}}